[{"OBJECT_NAME":"ONEWEB-0083","OBJECT_ID":"2020-020M","EPOCH":"2026-03-09T22:42:56.348064","MEAN_MOTION":13.11416289,"ECCENTRICITY":0.00018773,"INCLINATION":87.887,"RA_OF_ASC_NODE":40.785,"ARG_OF_PERICENTER":84.5696,"MEAN_ANOMALY":275.5646,"EPHEMERIS_TYPE":0,"CLASSIFICATION_TYPE":"U","NORAD_CAT_ID":45435,"ELEMENT_SET_NO":999,"REV_AT_EPOCH":28966,"BSTAR":-0.0015628576,"MEAN_MOTION_DOT":-5.41e-6,"MEAN_MOTION_DDOT":0},{"OBJECT_NAME":"FENGYUN 1C DEB","OBJECT_ID":"1999-025GV","EPOCH":"2026-03-09T08:00:14.396544","MEAN_MOTION":13.37527329,"ECCENTRICITY":0.03525941,"INCLINATION":98.6727,"RA_OF_ASC_NODE":216.218,"ARG_OF_PERICENTER":221.0268,"MEAN_ANOMALY":136.3848,"EPHEMERIS_TYPE":0,"CLASSIFICATION_TYPE":"U","NORAD_CAT_ID":29899,"ELEMENT_SET_NO":999,"REV_AT_EPOCH":93242,"BSTAR":0.00037080278,"MEAN_MOTION_DOT":2.42e-6,"MEAN_MOTION_DDOT":0}]
